NOAA 1 [-]              
1 04793U 70106A   16273.28493036 -.00000038  00000-0  45851-4 0  9990
2 04793 101.8437 333.2456 0032003  40.4608   0.9585 12.53978017 96459
NOAA 2 [-]              
1 06235U 72082A   16273.50503671 -.00000022  00000-0  13913-3 0  9996
2 06235 101.6387 237.3459 0004072 125.8912 343.2785 12.53086676 10791
NOAA 3 [-]              
1 06920U 73086A   16273.49943282 -.00000037  00000-0  56137-4 0  9998
2 06920 101.8976 242.3942 0006167 202.8286 271.3026 12.40354830942225
NOAA 4 [-]              
1 07529U 74089A   16273.50995973 -.00000034  00000-0  64073-4 0  9999
2 07529 101.5986 241.9480 0008799 163.0936 312.9623 12.53109096915382
NOAA 5 [-]              
1 09057U 76077A   16273.51138984 -.00000048  00000-0 -33778-4 0  9992
2 09057 101.7987 258.2864 0010163  55.6378  59.6624 12.37767211815751
TIROS N [P]             
1 11060U 78096A   16273.14247181  .00000073  00000-0  57421-4 0  9998
2 11060  98.9347 316.0716 0010681  12.4023 347.7412 14.18127231175980
NOAA 6 [P]              
1 11416U 79057A   16273.46569865  .00000105  00000-0  54144-4 0  9997
2 11416  98.5539 258.0465 0009400 303.6876  56.3411 14.33370753942720
NOAA 7 [-]              
1 12553U 81059A   16273.52298723 -.00000010  00000-0  17919-4 0  9999
2 12553  99.0168 245.0321 0010499 278.7820 201.6733 14.17198919822414
NOAA 8 [-]              
1 13923U 83022A   16273.52829724  .00000059  00000-0  40687-4 0  9994
2 13923  98.4926 264.2626 0014766 205.5412 154.5041 14.28548270744678
NOAA 9 [P]              
1 15427U 84123A   16274.52348095  .00000022  00000-0  33405-4 0  9996
2 15427  98.7694 215.9797 0014689 345.6979 143.5986 14.15970847641626
NOAA 10 [-]             
1 16969U 86073A   16273.53033645  .00000034  00000-0  30670-4 0  9990
2 16969  98.4678 284.1822 0011467 326.9924 146.3580 14.27982293563239
NOAA 11 [-]             
1 19531U 88089A   16273.30549974 -.00000005  00000-0  19169-4 0  9998
2 19531  98.5915 335.9371 0012257  69.4358 290.8130 14.15194370445855
NOAA 12 [-]             
1 21263U 91032A   16273.52980086  .00000018  00000-0  25964-4 0  9995
2 21263  98.5892 297.1582 0013027 326.8207  33.2155 14.25822546319586
NOAA 13 [-]             
1 22739U 93050A   16273.25181124  .00000004  00000-0  24635-4 0  9991
2 22739  98.6014 326.9384 0009318 193.5064 166.5860 14.12664735192594
NOAA 14 [-]             
1 23455U 94089A   16273.51110812 -.00000012  00000-0  16518-4 0  9996
2 23455  98.7155 349.3317 0009592 173.2698 186.8606 14.14084226121996
NOAA 15 [B]             
1 25338U 98030A   16273.50782903  .00000065  00000-0  46372-4 0  9991
2 25338  98.7855 277.8789 0009630 240.5614 119.4605 14.25755437955854
NOAA 16 [-]             
1 26536U 00055A   16273.51857411  .00000006  00000-0  26786-4 0  9992
2 26536  98.8886 342.5884 0010154 346.4582  13.6316 14.13156058826097
NOAA 17 [-]             
1 27453U 02032A   16273.54831166  .00000044  00000-0  36648-4 0  9990
2 27453  98.3961 242.6978 0010595 241.1708 118.8409 14.24962118741641
NOAA 18 [B]             
1 28654U 05018A   16273.48911347  .00000043  00000-0  48607-4 0  9991
2 28654  99.1979 283.1348 0015308  83.3800 276.9112 14.12306832585454
NOAA 19 [+]             
1 33591U 09005A   16274.52125267  .00000127  00000-0  94286-4 0  9998
2 33591  99.0526 232.2197 0013010 284.3993  75.5733 14.12111026394008
NPP [+]                 
1 37849U 11061A   16274.50620083  .00000008  00000-0  24680-4 0  9996
2 37849  98.7058 211.1080 0001367 121.1298  17.5120 14.19543480255247
